IRIDIUM 135             
1 43070U 17083A   26191.24494526  .00000034  00000+0  52470-5 0  9997
2 43070  86.3981 312.3761 0002181  93.4059 266.7386 14.34217171447459
IRIDIUM 138             
1 43071U 17083B   26191.27031476  .00000159  00000+0  49822-4 0  9996
2 43071  86.3996 312.0646 0002075  91.4896 268.6537 14.34217438447448
IRIDIUM 116             
1 43072U 17083C   26190.75021686  .00000168  00000+0  53059-4 0  9998
2 43072  86.3982 312.5688 0002386  99.5500 260.5966 14.34219889447406
IRIDIUM 130             
1 43073U 17083D   26191.27665859  .00000152  00000+0  47122-4 0  9990
2 43073  86.3991 312.6264 0002164 101.1268 259.0172 14.34216740447420
IRIDIUM 151             
1 43074U 17083E   26190.62337006  .00000204  00000+0  65618-4 0  9997
2 43074  86.3984 312.6799 0002209  95.3542 264.7906 14.34216802447354
IRIDIUM 134             
1 43075U 17083F   26191.28934350 -.00000070  00000+0 -32095-4 0  9992
2 43075  86.3984 312.4102 0002086  95.4790 264.6644 14.34216635447419
IRIDIUM 137             
1 43076U 17083G   26191.30202947  .00000131  00000+0  39602-4 0  9993
2 43076  86.3987 312.4981 0002647  95.6921 264.4577 14.34217368447483
IRIDIUM 141             
1 43077U 17083H   26191.29568279  .00000035  00000+0  53926-5 0  9994
2 43077  86.3981 312.3299 0002192  92.2897 267.8550 14.34218284447485
IRIDIUM 153             
1 43078U 17083J   26191.24786330  .00000119  00000+0  35356-4 0  9999
2 43078  86.3961 280.8301 0002115  94.2606 265.8831 14.34217659448589
IRIDIUM 131             
1 43079U 17083K   26191.28300100 -.00000087  00000+0 -38133-4 0  9993
2 43079  86.3985 312.5225 0002079  92.5828 267.5606 14.34216775447418
IRIDIUM 144             
1 43249U 18030A   26191.25420639  .00000016  00000+0 -14708-5 0  9996
2 43249  86.3959 280.7559 0002382  96.9893 263.1574 14.34217693433445
IRIDIUM 149             
1 43250U 18030B   26191.19078076  .00000079  00000+0  21201-4 0  9998
2 43250  86.3959 280.7492 0002240  93.7456 266.3996 14.34217187433458
IRIDIUM 157             
1 43251U 18030C   26191.20981032  .00000050  00000+0  10954-4 0  9998
2 43251  86.3961 280.7949 0002252  93.9359 266.2095 14.34216466433432
IRIDIUM 140             
1 43252U 18030D   26190.67068786  .00000104  00000+0  30102-4 0  9998
2 43252  86.3960 281.0330 0002201  95.6195 264.5252 14.34216088433415
IRIDIUM 145             
1 43253U 18030E   26191.21614805  .00000086  00000+0  23781-4 0  9993
2 43253  86.3956 280.7772 0002425 102.3392 257.8076 14.34216263433425
IRIDIUM 146             
1 43254U 18030F   26191.19712178  .00000182  00000+0  58027-4 0  9991
2 43254  86.3960 280.7972 0002404  98.0496 262.0973 14.34217536433435
IRIDIUM 148             
1 43255U 18030G   26190.67703251  .00000100  00000+0  28531-4 0  9993
2 43255  86.3963 281.0581 0002332  94.4283 265.7179 14.34216500433396
IRIDIUM 142             
1 43256U 18030H   26190.64531809  .00000178  00000+0  56511-4 0  9993
2 43256  86.3959 280.9595 0002382  98.6640 261.4826 14.34217370433357
IRIDIUM 150             
1 43257U 18030J   26191.17174645 -.00000245  00000+0 -94436-4 0  9999
2 43257  86.3963 280.8566 0002215  95.9860 264.1588 14.34219143433455
IRIDIUM 143             
1 43258U 18030K   26190.66434467  .00000224  00000+0  72745-4 0  9998
2 43258  86.3964 281.1619 0002308  98.1561 261.9897 14.34217361433319
IRIDIUM 161             
1 43478U 18047C   26190.21618748  .00000208  00000+0  55734-4 0  9998
2 43478  86.4469  79.2595 0002353  78.9993 281.1472 14.43284336428311
IRIDIUM 152             
1 43479U 18047D   26190.21845939  .00000162  00000+0  50953-4 0  9990
2 43479  86.3944  79.1199 0002172  82.5193 277.6250 14.34218640425642
IRIDIUM 147             
1 43480U 18047E   26191.20155174  .00000216  00000+0  70123-4 0  9998
2 43480  86.3943  78.7142 0002275  88.4445 271.7011 14.34216920425789
IRIDIUM 110             
1 43481U 18047F   26191.13812865  .00000166  00000+0  52222-4 0  9992
2 43481  86.3948  78.8334 0002218  76.9125 283.2318 14.34217351425768
IRIDIUM 162             
1 43482U 18047G   26191.11118814  .00000189  00000+0  50126-4 0  9990
2 43482  86.4467  78.7759 0002187  84.2783 275.8667 14.43283456428433
IRIDIUM 160             
1 43569U 18061A   26191.01419513  .00000111  00000+0  32630-4 0  9996
2 43569  86.3937  47.2497 0002252  86.2180 273.9273 14.34217652416643
IRIDIUM 166             
1 43570U 18061B   26190.55118481  .00000021  00000+0  34358-6 0  9997
2 43570  86.3942  47.3936 0002256  89.7499 270.3955 14.34217868416608
IRIDIUM 158             
1 43571U 18061C   26191.00785226 -.00000083  00000+0 -36732-4 0  9992
2 43571  86.3938  47.2127 0002004  86.2707 273.8718 14.34216771416630
IRIDIUM 165             
1 43572U 18061D   26190.54484201  .00000093  00000+0  26099-4 0  9994
2 43572  86.3944  47.4530 0002256  90.6727 269.4727 14.34216760416592
IRIDIUM 155             
1 43573U 18061E   26191.06493464 -.00000041  00000+0 -21531-4 0  9995
2 43573  86.3934  47.1028 0001995  87.9666 272.1759 14.34216576416637
